[{"OBJECT_NAME":"LAPAN-A3","OBJECT_ID":"2016-040E","EPOCH":"2026-03-09T23:01:57.724896","MEAN_MOTION":15.3238951,"ECCENTRICITY":0.00109839,"INCLINATION":97.1488,"RA_OF_ASC_NODE":68.4254,"ARG_OF_PERICENTER":22.062,"MEAN_ANOMALY":338.1093,"EPHEMERIS_TYPE":0,"CLASSIFICATION_TYPE":"U","NORAD_CAT_ID":41603,"ELEMENT_SET_NO":999,"REV_AT_EPOCH":53961,"BSTAR":0.00017567445,"MEAN_MOTION_DOT":5.428e-5,"MEAN_MOTION_DDOT":0},{"OBJECT_NAME":"STARLINK-3096","OBJECT_ID":"2021-082B","EPOCH":"2026-03-10T00:00:02.999808","MEAN_MOTION":15.33446833,"ECCENTRICITY":0.00034236,"INCLINATION":69.9998,"RA_OF_ASC_NODE":252.2721,"ARG_OF_PERICENTER":279.9926,"MEAN_ANOMALY":116.5277,"EPHEMERIS_TYPE":0,"CLASSIFICATION_TYPE":"U","NORAD_CAT_ID":49131,"ELEMENT_SET_NO":999,"REV_AT_EPOCH":571,"BSTAR":0.0038781265,"MEAN_MOTION_DOT":0.00127742,"MEAN_MOTION_DDOT":0}]
